{
  "type": "FeatureCollection",
  "features": [
    {
      "type": "Feature",
      "properties": {
        "norad_id": 59600,
        "name": "GSAT0227 (GALILEO 30)",
        "group": "galileo",
        "lat": 3.651501646187499,
        "lon": -76.45566031472106,
        "alt_km": 23217.323974323863,
        "timestamp": "2025-12-19T04:59:48.569228+00:00",
        "meta_object_name": "GSAT0227 (GALILEO 30)",
        "meta_object_id": "2024-079C",
        "meta_epoch": "2025-12-17T17:58:49.575360",
        "meta_mean_motion": 1.704749,
        "meta_eccentricity": 0.00029705,
        "meta_inclination": 54.9996,
        "meta_ra_of_asc_node": 106.1542,
        "meta_arg_of_pericenter": 116.5176,
        "meta_mean_anomaly": 243.4717,
        "meta_ephemeris_type": 0,
        "meta_classification_type": "U",
        "meta_norad_cat_id": 59600,
        "meta_element_set_no": 999,
        "meta_rev_at_epoch": 1027,
        "meta_bstar": 0,
        "meta_mean_motion_dot": -9e-08,
        "meta_mean_motion_ddot": 0,
        "tle_line1": "1 59600U 24079C   25351.74918490 -.00000009  00000+0  00000+0 0  9998",
        "tle_line2": "2 59600  54.9996 106.1542 0002970 116.5176 243.4717  1.70474900 10278"
      },
      "geometry": {
        "type": "Point",
        "coordinates": [
          -76.45566031472106,
          3.651501646187499
        ]
      }
    },
    {
      "type": "Feature",
      "properties": {
        "norad_id": 61182,
        "name": "GSAT0232 (GALILEO 32)",
        "group": "galileo",
        "lat": 8.067018787111728,
        "lon": -128.08855389562416,
        "alt_km": 23226.713398358203,
        "timestamp": "2025-12-19T04:59:48.569244+00:00",
        "meta_object_name": "GSAT0232 (GALILEO 32)",
        "meta_object_id": "2024-167A",
        "meta_epoch": "2025-12-18T08:17:33.319392",
        "meta_mean_motion": 1.70473695,
        "meta_eccentricity": 0.0001893,
        "meta_inclination": 55.239,
        "meta_ra_of_asc_node": 226.2771,
        "meta_arg_of_pericenter": 209.3432,
        "meta_mean_anomaly": 351.1487,
        "meta_ephemeris_type": 0,
        "meta_classification_type": "U",
        "meta_norad_cat_id": 61182,
        "meta_element_set_no": 999,
        "meta_rev_at_epoch": 779,
        "meta_bstar": 0,
        "meta_mean_motion_dot": 6.2e-07,
        "meta_mean_motion_ddot": 0,
        "tle_line1": "1 61182U 24167A   25352.34552453  .00000062  00000+0  00000+0 0  9992",
        "tle_line2": "2 61182  55.2390 226.2771 0001893 209.3432 351.1487  1.70473695  7799"
      },
      "geometry": {
        "type": "Point",
        "coordinates": [
          -128.08855389562416,
          8.067018787111728
        ]
      }
    },
    {
      "type": "Feature",
      "properties": {
        "norad_id": 61183,
        "name": "GSAT0226 (GALILEO 31)",
        "group": "galileo",
        "lat": 43.84195457625685,
        "lon": 4.473266127021161,
        "alt_km": 23213.970785219044,
        "timestamp": "2025-12-19T04:59:48.569255+00:00",
        "meta_object_name": "GSAT0226 (GALILEO 31)",
        "meta_object_id": "2024-167B",
        "meta_epoch": "2025-12-18T17:01:42.722400",
        "meta_mean_motion": 1.70473755,
        "meta_eccentricity": 0.00010459,
        "meta_inclination": 55.2376,
        "meta_ra_of_asc_node": 226.2726,
        "meta_arg_of_pericenter": 106.7871,
        "meta_mean_anomaly": 69.7575,
        "meta_ephemeris_type": 0,
        "meta_classification_type": "U",
        "meta_norad_cat_id": 61183,
        "meta_element_set_no": 999,
        "meta_rev_at_epoch": 777,
        "meta_bstar": 0,
        "meta_mean_motion_dot": 6.4e-07,
        "meta_mean_motion_ddot": 0,
        "tle_line1": "1 61183U 24167B   25352.70952225  .00000064  00000+0  00000+0 0  9996",
        "tle_line2": "2 61183  55.2376 226.2726 0001045 106.7871  69.7575  1.70473755  7775"
      },
      "geometry": {
        "type": "Point",
        "coordinates": [
          4.473266127021161,
          43.84195457625685
        ]
      }
    },
    {
      "type": "Feature",
      "properties": {
        "norad_id": 67160,
        "name": "GALILEO A",
        "group": "galileo",
        "lat": -43.98374612052474,
        "lon": 63.202777324801424,
        "alt_km": 22938.835307384386,
        "timestamp": "2025-12-19T04:59:48.569267+00:00",
        "meta_object_name": "GALILEO A",
        "meta_object_id": "2025-302A",
        "meta_epoch": "2025-12-18T03:30:19.276416",
        "meta_mean_motion": 1.72903353,
        "meta_eccentricity": 0.00081342,
        "meta_inclination": 54.2386,
        "meta_ra_of_asc_node": 107.2478,
        "meta_arg_of_pericenter": 237.4124,
        "meta_mean_anomaly": 122.4681,
        "meta_ephemeris_type": 0,
        "meta_classification_type": "U",
        "meta_norad_cat_id": 67160,
        "meta_element_set_no": 999,
        "meta_rev_at_epoch": 2,
        "meta_bstar": 0,
        "meta_mean_motion_dot": -7e-08,
        "meta_mean_motion_ddot": 0,
        "tle_line1": "1 67160U 25302A   25352.14605644 -.00000007  00000+0  00000+0 0  9995",
        "tle_line2": "2 67160  54.2386 107.2478 0008134 237.4124 122.4681  1.72903353    27"
      },
      "geometry": {
        "type": "Point",
        "coordinates": [
          63.202777324801424,
          -43.98374612052474
        ]
      }
    },
    {
      "type": "Feature",
      "properties": {
        "norad_id": 67161,
        "name": "GALILEO B",
        "group": "galileo",
        "lat": -43.731571780125066,
        "lon": 63.6416869034421,
        "alt_km": 22932.53790711935,
        "timestamp": "2025-12-19T04:59:48.569278+00:00",
        "meta_object_name": "GALILEO B",
        "meta_object_id": "2025-302B",
        "meta_epoch": "2025-12-18T17:22:24.246336",
        "meta_mean_motion": 1.72971576,
        "meta_eccentricity": 0.00048165,
        "meta_inclination": 54.2288,
        "meta_ra_of_asc_node": 107.2066,
        "meta_arg_of_pericenter": 251.7259,
        "meta_mean_anomaly": 108.1814,
        "meta_ephemeris_type": 0,
        "meta_classification_type": "U",
        "meta_norad_cat_id": 67161,
        "meta_element_set_no": 999,
        "meta_rev_at_epoch": 4,
        "meta_bstar": 0,
        "meta_mean_motion_dot": -6e-08,
        "meta_mean_motion_ddot": 0,
        "tle_line1": "1 67161U 25302B   25352.72389174 -.00000006  00000+0  00000+0 0  9996",
        "tle_line2": "2 67161  54.2288 107.2066 0004816 251.7259 108.1814  1.72971576    46"
      },
      "geometry": {
        "type": "Point",
        "coordinates": [
          63.6416869034421,
          -43.731571780125066
        ]
      }
    }
  ]
}